SatCatId,ObjectName,LaunchYear,OrbitalPeriod,LaunchMass,StatusCode,Inclination,Status,UcsData,OrbitClassEstimated,LaunchSiteCountry,Owner,UseType,Purpose,LaunchVehicleClass,TLE1,TLE2,MeanMotion,Eccentricity,OrbitClass
48055,ONEWEB-0157,2021,109.63,148.0,+,87.89,Active,1,LEO,Russia,UK,Commercial,Communications,Soyuz,1 48055U 21025P   24144.46174775 -.00000195  00000+0 -56857-3 0  9998,2 48055  87.8910 110.4550 0002019  77.8107 282.3248 13.13467783154490,13.13467783,0.0002019,LEO
48056,ONEWEB-0162,2021,109.63,148.0,+,87.89,Active,1,LEO,Russia,UK,Commercial,Communications,Soyuz,1 48056U 21025Q   24144.42525064  .00000324  00000+0  85224-3 0  9998,2 48056  87.8906 110.4585 0001962  82.7697 277.3655 13.13472248154464,13.13472248,0.0001962,LEO
48057,ONEWEB-0155,2021,109.63,148.0,+,87.89,Active,1,LEO,Russia,UK,Commercial,Communications,Soyuz,1 48057U 21025R   24144.44588400  .00000213  00000+0  54953-3 0  9996,2 48057  87.8908 110.4646 0002068  85.0081 275.1284 13.13467997154601,13.13467997,0.0002068,LEO
48058,ONEWEB-0149,2021,109.63,148.0,+,87.89,Active,1,LEO,Russia,UK,Commercial,Communications,Soyuz,1 48058U 21025S   24144.46651375 -.00000290  00000+0 -82888-3 0  9996,2 48058  87.8909 110.4569 0001827  80.1850 279.9486 13.13469538154417,13.13469538,0.0001827,LEO
48059,ONEWEB-0148,2021,109.63,148.0,+,87.89,Active,1,LEO,Russia,UK,Commercial,Communications,Soyuz,1 48059U 21025T   24144.43161920  .00000393  00000+0  10402-2 0  9990,2 48059  87.8910 110.4730 0001703  63.3381 296.7922 13.13472279154536,13.13472279,0.0001703,LEO
48060,ONEWEB-0160,2021,109.63,148.0,+,87.89,Active,1,LEO,Russia,UK,Commercial,Communications,Soyuz,1 48060U 21025U   24144.44746989  .00000142  00000+0  35419-3 0  9995,2 48060  87.8913 110.4658 0001901 113.5466 246.5863 13.13468084154482,13.13468084,0.0001901,LEO
48061,ONEWEB-0163,2021,109.63,148.0,+,87.89,Active,1,LEO,Russia,UK,Commercial,Communications,Soyuz,1 48061U 21025V   24144.43319129  .00000411  00000+0  10896-2 0  9997,2 48061  87.8908 110.4619 0002153  78.1493 281.9877 13.13468523154600,13.13468523,0.0002153,LEO
48062,ONEWEB-0159,2021,109.63,148.0,+,87.89,Active,1,LEO,Russia,UK,Commercial,Communications,Soyuz,1 48062U 21025W   24144.42208390 -.00000244  00000+0 -70433-3 0  9994,2 48062  87.8907 110.4480 0002062  78.8454 281.2907 13.13470239154524,13.13470239,0.0002062,LEO
48063,ONEWEB-0164,2021,109.63,148.0,+,87.89,Active,1,LEO,Russia,UK,Commercial,Communications,Soyuz,1 48063U 21025X   24144.40460813 -.00000412  00000+0 -11632-2 0  9995,2 48063  87.8906 110.4612 0002143  85.9107 274.2267 13.13469037154508,13.13469037,0.0002143,LEO
48064,ONEWEB-0167,2021,109.63,148.0,+,87.89,Active,1,LEO,Russia,UK,Commercial,Communications,Soyuz,1 48064U 21025Y   24144.43399665  .00000326  00000+0  85695-3 0  9998,2 48064  87.8910 110.4669 0002115  79.5459 280.5908 13.13470493154492,13.13470493,0.0002115,LEO
48065,ONEWEB-0166,2021,109.63,148.0,+,87.89,Active,1,LEO,Russia,UK,Commercial,Communications,Soyuz,1 48065U 21025Z   24144.45540027 -.00000055  00000+0 -18508-3 0  9991,2 48065  87.8906 110.4467 0001873  79.6574 280.4766 13.13467652154576,13.13467652,0.0001873,LEO
48066,ONEWEB-0151,2021,109.63,148.0,+,87.89,Active,1,LEO,Russia,UK,Commercial,Communications,Soyuz,1 48066U 21025AA  24144.45698584 -.00000082  00000+0 -26068-3 0  9994,2 48066  87.8909 110.4593 0002177  85.2106 274.9272 13.13471891154516,13.13471891,0.0002177,LEO
48067,ONEWEB-0170,2021,109.63,148.0,+,87.89,Active,1,LEO,Russia,UK,Commercial,Communications,Soyuz,1 48067U 21025AB  24144.46491891 -.00000216  00000+0 -62748-3 0  9992,2 48067  87.8909 110.4598 0002378  97.7174 262.4225 13.13467910154470,13.1346791,0.0002378,LEO
48068,ONEWEB-0168,2021,109.63,148.0,+,87.89,Active,1,LEO,Russia,UK,Commercial,Communications,Soyuz,1 48068U 21025AC  24144.45064276  .00000085  00000+0  19706-3 0  9993,2 48068  87.8912 110.4317 0002042  80.6182 279.5178 13.13468607154483,13.13468607,0.0002042,LEO
48069,ONEWEB-0173,2021,109.63,148.0,+,87.89,Active,1,LEO,Russia,UK,Commercial,Communications,Soyuz,1 48069U 21025AD  24144.44271202  .00000286  00000+0  74766-3 0  9992,2 48069  87.8912 110.4438 0002461  79.4967 280.6439 13.13468352154727,13.13468352,0.0002461,LEO
48070,ONEWEB-0171,2021,109.63,148.0,+,87.89,Active,1,LEO,Russia,UK,Commercial,Communications,Soyuz,1 48070U 21025AE  24144.40302253 -.00000534  00000+0 -14967-2 0  9995,2 48070  87.8911 110.4868 0002148  84.7588 275.3787 13.13470068154538,13.13470068,0.0002148,LEO
48071,ONEWEB-0172,2021,109.63,148.0,+,87.89,Active,1,LEO,Russia,UK,Commercial,Communications,Soyuz,1 48071U 21025AF  24144.45857571 -.00000267  00000+0 -76671-3 0  9993,2 48071  87.8914 110.4426 0002270  85.0393 275.0995 13.13467956155436,13.13467956,0.000227,LEO
48072,ONEWEB-0174,2021,109.63,148.0,+,87.89,Active,1,LEO,Russia,UK,Commercial,Communications,Soyuz,1 48072U 21025AG  24144.44112959  .00000314  00000+0  82571-3 0  9994,2 48072  87.8912 110.4602 0001909  80.4371 279.6974 13.13469848154757,13.13469848,0.0001909,LEO
48073,ONEWEB-0175,2021,109.63,148.0,+,87.89,Active,1,LEO,Russia,UK,Commercial,Communications,Soyuz,1 48073U 21025AH  24144.39350299 -.00000575  00000+0 -16088-2 0  9990,2 48073  87.8906 110.4597 0002330  91.3591 268.7805 13.13469475154408,13.13469475,0.000233,LEO
48074,ONEWEB-0177,2021,109.63,148.0,+,87.89,Active,1,LEO,Russia,UK,Commercial,Communications,Soyuz,1 48074U 21025AJ  24144.40619623 -.00000219  00000+0 -63537-3 0  9999,2 48074  87.8906 110.4645 0002189  77.3812 282.7562 13.13472068154593,13.13472068,0.0002189,LEO
48075,ONEWEB-0178,2021,109.63,148.0,+,87.89,Active,1,LEO,Russia,UK,Commercial,Communications,Soyuz,1 48075U 21025AK  24144.42380873  .00000239  00000+0  61878-3 0  9990,2 48075  87.8914 110.4772 0002163  78.6891 281.4481 13.13472732154647,13.13472732,0.0002163,LEO
48076,ONEWEB-0108,2021,109.63,148.0,+,87.89,Active,1,LEO,Russia,UK,Commercial,Communications,Soyuz,1 48076U 21025AL  24144.46016121 -.00000150  00000+0 -44441-3 0  9998,2 48076  87.8907 110.4514 0001796  85.8498 274.2837 13.13467577154576,13.13467577,0.0001796,LEO
48077,ONEWEB-0169,2021,109.63,148.0,+,87.89,Active,1,LEO,Russia,UK,Commercial,Communications,Soyuz,1 48077U 21025AM  24144.41571714  .00000003  00000+0 -26647-4 0  9993,2 48077  87.8908 110.4696 0001766  85.7834 274.3497 13.13472107153228,13.13472107,0.0001766,LEO
48079,GAOFEN-12 02,2021,97.22,3000.0,+,97.95,Active,1,LEO,PRC,China,Government,Earth Observation,Long March,1 48079U 21026A   24144.58479259  .00001249  00000+0  16717-3 0  9993,2 48079  97.9497 136.4689 0000955  90.4213 269.7109 14.81217213170103,14.81217213,9.55e-05,LEO
48083,BEESAT-5,2021,91.6,1.0,+,97.41,Active,1,LEO,Kazakhstan,Germany,Civil,Technology Development,Soyuz,1 48083U 21022AM  24141.72855085  .00435692  00000+0  31606-2 0  9998,2 48083  97.4104  49.8502 0010373 150.0178 210.1682 15.72085618174032,15.72085618,0.0010373,LEO
48084,BEESAT-7,2021,92.64,1.0,+,97.46,Active,1,LEO,Kazakhstan,Germany,Civil,Technology Development,Soyuz,1 48084U 21022AN  24144.53564321  .00125980  00000+0  18689-2 0  9993,2 48084  97.4620  51.6436 0010730 163.6947 196.4654 15.54721351173927,15.54721351,0.001073,LEO
48085,BEESAT-8,2021,94.05,1.0,+,97.48,Active,1,LEO,Kazakhstan,Germany,Civil,Technology Development,Soyuz,1 48085U 21022AP  24144.53056366  .00035644  00000+0  11766-2 0  9995,2 48085  97.4794  46.3786 0011493 201.2350 158.8415 15.31261005174101,15.31261005,0.0011493,LEO
48092,STARLINK-2048,2021,95.59,260.0,+,53.05,Active,1,LEO,USA,USA,Commercial,Communications,Falcon,1 48092U 21027A   24144.34589607  .00001307  00000+0  10662-3 0  9990,2 48092  53.0544 158.8485 0001492 104.7851 255.3303 15.06400903174682,15.06400903,0.0001492,LEO
48093,STARLINK-2404,2021,95.59,260.0,+,53.05,Active,1,LEO,USA,USA,Commercial,Communications,Falcon,1 48093U 21027B   24144.50762486  .00024661  00000+0  16684-2 0  9994,2 48093  53.0544 223.0458 0001366  84.0257 276.0887 15.06406733173401,15.06406733,0.0001366,LEO
48094,STARLINK-2412,2021,95.59,260.0,+,53.06,Active,1,LEO,USA,USA,Commercial,Communications,Falcon,1 48094U 21027C   24144.52509273  .00005593  00000+0  39383-3 0  9995,2 48094  53.0554 232.7591 0001648 103.3670 256.7503 15.06422508173278,15.06422508,0.0001648,LEO
48095,STARLINK-2414,2021,95.59,260.0,+,53.05,Active,1,LEO,USA,USA,Commercial,Communications,Falcon,1 48095U 21027D   24144.46614618  .00009829  00000+0  67789-3 0  9996,2 48095  53.0529 233.0357 0001167  91.4873 268.6250 15.06397092173677,15.06397092,0.0001167,LEO
48096,STARLINK-2417,2021,95.59,260.0,+,53.05,Active,1,LEO,USA,USA,Commercial,Communications,Falcon,1 48096U 21027E   24144.50668770  .00017913  00000+0  12180-2 0  9997,2 48096  53.0515 232.8442 0001425  85.8857 274.2295 15.06412896173662,15.06412896,0.0001425,LEO
48097,STARLINK-2418,2021,95.59,260.0,+,53.05,Active,1,LEO,USA,USA,Commercial,Communications,Falcon,1 48097U 21027F   24144.42004719  .00004323  00000+0  30881-3 0  9996,2 48097  53.0537 213.2301 0001096  66.2820 293.8283 15.06410054173939,15.06410054,0.0001096,LEO
48098,STARLINK-2421,2021,95.59,260.0,+,53.05,Active,1,LEO,USA,USA,Commercial,Communications,Falcon,1 48098U 21027G   24144.52972664  .00020841  00000+0  14133-2 0  9995,2 48098  53.0531 222.7412 0001385  64.0187 296.0944 15.06415907173464,15.06415907,0.0001385,LEO
48099,STARLINK-2428,2021,95.59,260.0,+,53.05,Active,1,LEO,USA,USA,Commercial,Communications,Falcon,1 48099U 21027H   24144.51774875  .00012500  00000+0  85639-3 0  9992,2 48099  53.0542 232.7932 0001378 101.0659 259.0485 15.06406971173261,15.06406971,0.0001378,LEO
48100,STARLINK-2430,2021,95.59,260.0,+,53.05,Active,1,LEO,USA,USA,Commercial,Communications,Falcon,1 48100U 21027J   24144.47901867  .00006400  00000+0  44791-3 0  9999,2 48100  53.0527 212.9649 0000799  66.9674 293.1399 15.06420859173549,15.06420859,7.99e-05,LEO
